[
    {
        "Altitude(m)": 703070.4028983951,
        "Argument of Periapsis(deg)": 0.004556048474650827,
        "Eccentricity": 0.0,
        "Inclination(deg)": 45.0,
        "Latitude(deg)": 3.221918096635865,
        "Longitude(deg)": -102.08134822833057,
        "Mean Anomaly(deg)": 4.613286658992339,
        "RAAN(deg)": 354.99569922341675,
        "Satellite Name": "Constellation 1 1562",
        "Satellite Number": 1562,
        "Semi-Major Axis(m)": 7083131.272910544,
        "Time(s)": 76
    },
    {
        "Altitude(m)": 703066.3592249099,
        "Argument of Periapsis(deg)": 0.004615996480896233,
        "Eccentricity": 0.0,
        "Inclination(deg)": 45.0,
        "Latitude(deg)": 3.265068617703045,
        "Longitude(deg)": -102.04245783031745,
        "Mean Anomaly(deg)": 4.673987799242226,
        "RAAN(deg)": 354.99564263425117,
        "Satellite Name": "Constellation 1 1562",
        "Satellite Number": 1562,
        "Semi-Major Axis(m)": 7083131.272910544,
        "Time(s)": 77
    },
    {
        "Altitude(m)": 703062.3364236928,
        "Argument of Periapsis(deg)": 0.004675944487141638,
        "Eccentricity": 0.0,
        "Inclination(deg)": 45.0,
        "Latitude(deg)": 3.308217315220715,
        "Longitude(deg)": -102.00356370452192,
        "Mean Anomaly(deg)": 4.734688939492163,
        "RAAN(deg)": 354.9955860450856,
        "Satellite Name": "Constellation 1 1562",
        "Satellite Number": 1562,
        "Semi-Major Axis(m)": 7083131.272910544,
        "Time(s)": 78
    },
    {
        "Altitude(m)": 703058.3344940296,
        "Argument of Periapsis(deg)": 0.004735892493387044,
        "Eccentricity": 0.0,
        "Inclination(deg)": 45.0,
        "Latitude(deg)": 3.3513641639650107,
        "Longitude(deg)": -101.96466580230437,
        "Mean Anomaly(deg)": 4.79539007974205,
        "RAAN(deg)": 354.99552945592,
        "Satellite Name": "Constellation 1 1562",
        "Satellite Number": 1562,
        "Semi-Major Axis(m)": 7083131.272910544,
        "Time(s)": 79
    },
    {
        "Altitude(m)": 703054.3534351084,
        "Argument of Periapsis(deg)": 0.004795840499632449,
        "Eccentricity": 0.0,
        "Inclination(deg)": 45.0,
        "Latitude(deg)": 3.394509138704766,
        "Longitude(deg)": -101.92576407501646,
        "Mean Anomaly(deg)": 4.856091219991936,
        "RAAN(deg)": 354.9954728667545,
        "Satellite Name": "Constellation 1 1562",
        "Satellite Number": 1562,
        "Semi-Major Axis(m)": 7083131.272910544,
        "Time(s)": 80
    },
    {
        "Altitude(m)": 703050.3932460285,
        "Argument of Periapsis(deg)": 0.004855788505877855,
        "Eccentricity": 0.0,
        "Inclination(deg)": 45.0,
        "Latitude(deg)": 3.437652214201423,
        "Longitude(deg)": -101.88685847400127,
        "Mean Anomaly(deg)": 4.916792360241822,
        "RAAN(deg)": 354.9954162775889,
        "Satellite Name": "Constellation 1 1562",
        "Satellite Number": 1562,
        "Semi-Major Axis(m)": 7083131.272910544,
        "Time(s)": 81
    },
    {
        "Altitude(m)": 703046.4539257956,
        "Argument of Periapsis(deg)": 0.00491573651212326,
        "Eccentricity": 0.0,
        "Inclination(deg)": 45.0,
        "Latitude(deg)": 3.480793365209044,
        "Longitude(deg)": -101.84794911869,
        "Mean Anomaly(deg)": 4.97749350049176,
        "RAAN(deg)": 354.9953596884233,
        "Satellite Name": "Constellation 1 1562",
        "Satellite Number": 1562,
        "Semi-Major Axis(m)": 7083131.272910544,
        "Time(s)": 82
    },
    {
        "Altitude(m)": 703042.5354733198,
        "Argument of Periapsis(deg)": 0.004975684518368666,
        "Eccentricity": 0.0,
        "Inclination(deg)": 45.0,
        "Latitude(deg)": 3.5239325664737775,
        "Longitude(deg)": -101.80903562421383,
        "Mean Anomaly(deg)": -354.9618053592584,
        "RAAN(deg)": 354.99530309925774,
        "Satellite Name": "Constellation 1 1562",
        "Satellite Number": 1562,
        "Semi-Major Axis(m)": 7083131.272910544,
        "Time(s)": 83
    },
    {
        "Altitude(m)": 703038.637887426,
        "Argument of Periapsis(deg)": 0.005035632524614072,
        "Eccentricity": 0.0,
        "Inclination(deg)": 45.0,
        "Latitude(deg)": 3.5670697927345136,
        "Longitude(deg)": -101.77011810998593,
        "Mean Anomaly(deg)": -354.9011042190085,
        "RAAN(deg)": 354.99524651009216,
        "Satellite Name": "Constellation 1 1562",
        "Satellite Number": 1562,
        "Semi-Major Axis(m)": 7083131.272910544,
        "Time(s)": 84
    },
    {
        "Altitude(m)": 703034.7611668329,
        "Argument of Periapsis(deg)": 0.0050955805308594785,
        "Eccentricity": 0.0,
        "Inclination(deg)": 45.0,
        "Latitude(deg)": 3.6102050187222003,
        "Longitude(deg)": -101.73119652731332,
        "Mean Anomaly(deg)": -354.8404030787586,
        "RAAN(deg)": 354.99518992092663,
        "Satellite Name": "Constellation 1 1562",
        "Satellite Number": 1562,
        "Semi-Major Axis(m)": 7083131.272910544,
        "Time(s)": 85
    },
    {
        "Altitude(m)": 703030.9053101783,
        "Argument of Periapsis(deg)": 0.005155528537104883,
        "Eccentricity": 0.0,
        "Inclination(deg)": 45.0,
        "Latitude(deg)": 3.6533382191598753,
        "Longitude(deg)": -101.69227082749393,
        "Mean Anomaly(deg)": -354.7797019385087,
        "RAAN(deg)": 354.995133331761,
        "Satellite Name": "Constellation 1 1562",
        "Satellite Number": 1562,
        "Semi-Major Axis(m)": 7083131.272910544,
        "Time(s)": 86
    },
    {
        "Altitude(m)": 703027.0703159993,
        "Argument of Periapsis(deg)": 0.0052154765433502885,
        "Eccentricity": 0.0,
        "Inclination(deg)": 45.0,
        "Latitude(deg)": 3.6964693687627794,
        "Longitude(deg)": -101.65334096181607,
        "Mean Anomaly(deg)": -354.7190007982588,
        "RAAN(deg)": 354.9950767425955,
        "Satellite Name": "Constellation 1 1562",
        "Satellite Number": 1562,
        "Semi-Major Axis(m)": 7083131.272910544,
        "Time(s)": 87
    },
    {
        "Altitude(m)": 703023.2561827464,
        "Argument of Periapsis(deg)": 0.005275424549595694,
        "Eccentricity": 0.0,
        "Inclination(deg)": 45.0,
        "Latitude(deg)": 3.739598442237942,
        "Longitude(deg)": -101.61440688155886,
        "Mean Anomaly(deg)": -354.6582996580089,
        "RAAN(deg)": 354.9950201534299,
        "Satellite Name": "Constellation 1 1562",
        "Satellite Number": 1562,
        "Semi-Major Axis(m)": 7083131.272910544,
        "Time(s)": 88
    },
    {
        "Altitude(m)": 703019.4629087753,
        "Argument of Periapsis(deg)": 0.0053353725558411,
        "Eccentricity": 0.0,
        "Inclination(deg)": 45.0,
        "Latitude(deg)": 3.78272541428461,
        "Longitude(deg)": -101.57546870608854,
        "Mean Anomaly(deg)": -354.59759851775897,
        "RAAN(deg)": 354.9949635642643,
        "Satellite Name": "Constellation 1 1562",
        "Satellite Number": 1562,
        "Semi-Major Axis(m)": 7083131.272910544,
        "Time(s)": 89
    },
    {
        "Altitude(m)": 703015.6904923448,
        "Argument of Periapsis(deg)": 0.005395320562086505,
        "Eccentricity": 0.0,
        "Inclination(deg)": 45.0,
        "Latitude(deg)": 3.825850259593275,
        "Longitude(deg)": -101.5365260504709,
        "Mean Anomaly(deg)": -354.5368973775091,
        "RAAN(deg)": 354.9949069750988,
        "Satellite Name": "Constellation 1 1562",
        "Satellite Number": 1562,
        "Semi-Major Axis(m)": 7083131.272910544,
        "Time(s)": 90
    },
    {
        "Altitude(m)": 703011.9389316258,
        "Argument of Periapsis(deg)": 0.00545526856833191,
        "Eccentricity": 0.0,
        "Inclination(deg)": 45.0,
        "Latitude(deg)": 3.868972952846479,
        "Longitude(deg)": -101.49757903405286,
        "Mean Anomaly(deg)": -354.4761962372592,
        "RAAN(deg)": 354.99485038593315,
        "Satellite Name": "Constellation 1 1562",
        "Satellite Number": 1562,
        "Semi-Major Axis(m)": 7083131.272910544,
        "Time(s)": 91
    },
    {
        "Altitude(m)": 703008.2082246944,
        "Argument of Periapsis(deg)": 0.005515216574577317,
        "Eccentricity": 0.0,
        "Inclination(deg)": 45.0,
        "Latitude(deg)": 3.912093468718299,
        "Longitude(deg)": -101.45862760807448,
        "Mean Anomaly(deg)": -354.4154950970093,
        "RAAN(deg)": 354.9947937967676,
        "Satellite Name": "Constellation 1 1562",
        "Satellite Number": 1562,
        "Semi-Major Axis(m)": 7083131.272910544,
        "Time(s)": 92
    },
    {
        "Altitude(m)": 703004.4983695326,
        "Argument of Periapsis(deg)": 0.005575164580822722,
        "Eccentricity": 0.0,
        "Inclination(deg)": 45.0,
        "Latitude(deg)": 3.95521178187432,
        "Longitude(deg)": -101.41967172376596,
        "Mean Anomaly(deg)": -354.3547939567594,
        "RAAN(deg)": 354.99473720760204,
        "Satellite Name": "Constellation 1 1562",
        "Satellite Number": 1562,
        "Semi-Major Axis(m)": 7083131.272910544,
        "Time(s)": 93
    },
    {
        "Altitude(m)": 703000.8093640357,
        "Argument of Periapsis(deg)": 0.005635112587068129,
        "Eccentricity": 0.0,
        "Inclination(deg)": 45.0,
        "Latitude(deg)": 3.998327866971498,
        "Longitude(deg)": -101.3807113323472,
        "Mean Anomaly(deg)": -354.29409281650953,
        "RAAN(deg)": 354.99468061843646,
        "Satellite Name": "Constellation 1 1562",
        "Satellite Number": 1562,
        "Semi-Major Axis(m)": 7083131.272910544,
        "Time(s)": 94
    }
]